[{"OBJECT_NAME":"SDA_1679","OBJECT_ID":"2025-230R","EPOCH":"2026-03-09T17:52:28.680096","MEAN_MOTION":13.85334515,"ECCENTRICITY":0.0004897,"INCLINATION":81.3013,"RA_OF_ASC_NODE":303.8521,"ARG_OF_PERICENTER":108.9978,"MEAN_ANOMALY":251.171,"EPHEMERIS_TYPE":0,"CLASSIFICATION_TYPE":"U","NORAD_CAT_ID":65989,"ELEMENT_SET_NO":999,"REV_AT_EPOCH":2005,"BSTAR":0.00022111439,"MEAN_MOTION_DOT":2.63e-6,"MEAN_MOTION_DDOT":0},{"OBJECT_NAME":"SL-14 R\/B","OBJECT_ID":"1989-018B","EPOCH":"2026-03-09T21:16:46.032096","MEAN_MOTION":13.84167547,"ECCENTRICITY":0.00184312,"INCLINATION":82.5174,"RA_OF_ASC_NODE":272.4637,"ARG_OF_PERICENTER":122.2674,"MEAN_ANOMALY":238.0275,"EPHEMERIS_TYPE":0,"CLASSIFICATION_TYPE":"U","NORAD_CAT_ID":19852,"ELEMENT_SET_NO":999,"REV_AT_EPOCH":87030,"BSTAR":2.3436584e-5,"MEAN_MOTION_DOT":4.1e-7,"MEAN_MOTION_DDOT":0}]
